[{"OBJECT_NAME":"STARLINK-5350","OBJECT_ID":"2023-061AX","EPOCH":"2026-03-09T09:28:33.115008","MEAN_MOTION":15.02527704,"ECCENTRICITY":0.00013249,"INCLINATION":43.0033,"RA_OF_ASC_NODE":185.7805,"ARG_OF_PERICENTER":265.9969,"MEAN_ANOMALY":94.0722,"EPHEMERIS_TYPE":0,"CLASSIFICATION_TYPE":"U","NORAD_CAT_ID":56419,"ELEMENT_SET_NO":999,"REV_AT_EPOCH":15686,"BSTAR":0.00012823937,"MEAN_MOTION_DOT":1.529e-5,"MEAN_MOTION_DDOT":0},{"OBJECT_NAME":"NOAA 16 DEB","OBJECT_ID":"2000-055BZ","EPOCH":"2026-03-09T09:57:46.840608","MEAN_MOTION":15.04968987,"ECCENTRICITY":0.00133628,"INCLINATION":98.8453,"RA_OF_ASC_NODE":286.076,"ARG_OF_PERICENTER":194.204,"MEAN_ANOMALY":165.8809,"EPHEMERIS_TYPE":0,"CLASSIFICATION_TYPE":"U","NORAD_CAT_ID":41142,"ELEMENT_SET_NO":999,"REV_AT_EPOCH":53866,"BSTAR":0.0051237154,"MEAN_MOTION_DOT":0.00073426,"MEAN_MOTION_DDOT":0}]
